start=new Date('2023-01-18T00:00:00.000Z').valueOf();
sats=[{"ELEMENT_SET_NO":"999","OBJECT_NAME":"STARLINK-3083","RCS_SIZE":"LARGE","OBJECT_ID":"2021-082AE","MEAN_MOTION_DDOT":"0.0000000000000","NORAD_CAT_ID":"49158","ARG_OF_PERICENTER":"279.0076","REV_AT_EPOCH":"7579","BSTAR":"0.00104790000000","TLE_LINE1":"1 49158U 21082AE  23017.91550414  .00012432  00000-0  10479-2 0  9997","REF_FRAME":"TEME","PERIOD":"96.107","SITE":"AFWTR","ECCENTRICITY":"0.00028690","MEAN_MOTION_DOT":"0.00012432","EPHEMERIS_TYPE":"0","MEAN_ELEMENT_THEORY":"SGP4","INCLINATION":"70.0021","TIME_SYSTEM":"UTC","CENTER_NAME":"EARTH","APOAPSIS":"574.058","SEMIMAJOR_AXIS":"6950.199","COUNTRY_CODE":"US","MEAN_ANOMALY":"81.0759","RA_OF_ASC_NODE":"285.8851","TLE_LINE2":"2 49158  70.0021 285.8851 0002869 279.0076  81.0759 14.98328061 75792","GP_ID":"223379653","LAUNCH_DATE":"2021-09-14","MEAN_MOTION":"14.98328061","EPOCH":"2023-01-17T21:58:19.557696","FILE":"3753286","DECAY_DATE":null,"PERIAPSIS":"570.070","CLASSIFICATION_TYPE":"U","OBJECT_TYPE":"PAYLOAD"},{"MEAN_MOTION":"14.98315652","LAUNCH_DATE":"2021-09-14","CLASSIFICATION_TYPE":"U","PERIAPSIS":"570.234","OBJECT_TYPE":"PAYLOAD","FILE":"3753023","EPOCH":"2023-01-17T05:13:51.837312","DECAY_DATE":null,"EPHEMERIS_TYPE":"0","MEAN_ELEMENT_THEORY":"SGP4","INCLINATION":"70.0000","COUNTRY_CODE":"US","TIME_SYSTEM":"UTC","CENTER_NAME":"EARTH","APOAPSIS":"573.970","SEMIMAJOR_AXIS":"6950.237","RA_OF_ASC_NODE":"307.6430","GP_ID":"223322543","TLE_LINE2":"2 49159  70.0000 307.6430 0002688 274.1697  85.9155 14.98315652 75199","MEAN_ANOMALY":"85.9155","REV_AT_EPOCH":"7519","BSTAR":"-0.00037154000000","TLE_LINE1":"1 49159U 21082AF  23017.21796108 -.00004522  00000-0 -37154-3 0  9996","REF_FRAME":"TEME","PERIOD":"96.108","MEAN_MOTION_DOT":"-0.00004522","ECCENTRICITY":"0.00026880","SITE":"AFWTR","OBJECT_NAME":"STARLINK-3056","ELEMENT_SET_NO":"999","MEAN_MOTION_DDOT":"0.0000000000000","OBJECT_ID":"2021-082AF","RCS_SIZE":"LARGE","NORAD_CAT_ID":"49159","ARG_OF_PERICENTER":"274.1697"},{"MEAN_ANOMALY":"95.5821","RA_OF_ASC_NODE":"306.8221","TLE_LINE2":"2 49160  70.0029 306.8221 0003035 264.4992  95.5821 14.98310102 75213","GP_ID":"223321295","TIME_SYSTEM":"UTC","CENTER_NAME":"EARTH","APOAPSIS":"574.229","SEMIMAJOR_AXIS":"6950.254","COUNTRY_CODE":"US","MEAN_ELEMENT_THEORY":"SGP4","INCLINATION":"70.0029","EPHEMERIS_TYPE":"0","DECAY_DATE":null,"FILE":"3753023","EPOCH":"2023-01-17T13:00:48.913920","PERIAPSIS":"570.010","CLASSIFICATION_TYPE":"U","OBJECT_TYPE":"PAYLOAD","LAUNCH_DATE":"2021-09-14","MEAN_MOTION":"14.98310102","ARG_OF_PERICENTER":"264.4992","NORAD_CAT_ID":"49160","RCS_SIZE":"LARGE","OBJECT_ID":"2021-082AG","MEAN_MOTION_DDOT":"0.0000000000000","ELEMENT_SET_NO":"999","OBJECT_NAME":"STARLINK-3095","ECCENTRICITY":"0.00030350","SITE":"AFWTR","MEAN_MOTION_DOT":"0.00008117","PERIOD":"96.108","REF_FRAME":"TEME","REV_AT_EPOCH":"7521","BSTAR":"0.00068765000000","TLE_LINE1":"1 49160U 21082AG  23017.54223280  .00008117  00000-0  68765-3 0  9994"},{"MEAN_MOTION":"14.98323230","LAUNCH_DATE":"2021-09-14","OBJECT_TYPE":"PAYLOAD","CLASSIFICATION_TYPE":"U","PERIAPSIS":"569.902","FILE":"3753094","EPOCH":"2023-01-17T13:07:40.419840","DECAY_DATE":null,"EPHEMERIS_TYPE":"0","INCLINATION":"70.0019","MEAN_ELEMENT_THEORY":"SGP4","COUNTRY_CODE":"US","APOAPSIS":"574.256","SEMIMAJOR_AXIS":"6950.214","CENTER_NAME":"EARTH","TIME_SYSTEM":"UTC","GP_ID":"223354350","TLE_LINE2":"2 49161  70.0019 306.7983 0003132 267.2119  92.8681 14.98323230 75228","RA_OF_ASC_NODE":"306.7983","MEAN_ANOMALY":"92.8681","TLE_LINE1":"1 49161U 21082AH  23017.54699560  .00000375  00000-0  39186-4 0  9997","BSTAR":"0.00003918600000","REV_AT_EPOCH":"7522","REF_FRAME":"TEME","PERIOD":"96.107","MEAN_MOTION_DOT":"0.00000375","ECCENTRICITY":"0.00031320","SITE":"AFWTR","OBJECT_NAME":"STARLINK-3080","ELEMENT_SET_NO":"999","MEAN_MOTION_DDOT":"0.0000000000000","OBJECT_ID":"2021-082AH","RCS_SIZE":"LARGE","NORAD_CAT_ID":"49161","ARG_OF_PERICENTER":"267.2119"},{"OBJECT_ID":"2021-082AJ","RCS_SIZE":"LARGE","MEAN_MOTION_DDOT":"0.0000000000000","ELEMENT_SET_NO":"999","OBJECT_NAME":"STARLINK-3082","ARG_OF_PERICENTER":"266.9488","NORAD_CAT_ID":"49162","REF_FRAME":"TEME","BSTAR":"-0.00019813000000","TLE_LINE1":"1 49162U 21082AJ  23017.53746699 -.00002456  00000-0 -19813-3 0  9991","REV_AT_EPOCH":"7530","ECCENTRICITY":"0.00031130","SITE":"AFWTR","MEAN_MOTION_DOT":"-0.00002456","PERIOD":"96.108","INCLINATION":"70.0010","MEAN_ELEMENT_THEORY":"SGP4","EPHEMERIS_TYPE":"0","MEAN_ANOMALY":"93.1315","GP_ID":"223322297","TLE_LINE2":"2 49162  70.0010 306.8291 0003113 266.9488  93.1315 14.98321406 75307","RA_OF_ASC_NODE":"306.8291","CENTER_NAME":"EARTH","APOAPSIS":"574.248","SEMIMAJOR_AXIS":"6950.219","TIME_SYSTEM":"UTC","COUNTRY_CODE":"US","FILE":"3753023","EPOCH":"2023-01-17T12:53:57.147936","DECAY_DATE":null,"OBJECT_TYPE":"PAYLOAD","PERIAPSIS":"569.921","CLASSIFICATION_TYPE":"U","LAUNCH_DATE":"2021-09-14","MEAN_MOTION":"14.98321406"},{"EPHEMERIS_TYPE":"0","MEAN_ELEMENT_THEORY":"SGP4","INCLINATION":"70.0010","COUNTRY_CODE":"US","TIME_SYSTEM":"UTC","APOAPSIS":"574.236","SEMIMAJOR_AXIS":"6950.220","CENTER_NAME":"EARTH","RA_OF_ASC_NODE":"285.8977","TLE_LINE2":"2 49163  70.0010 285.8977 0003095 263.1090  96.9717 14.98321262 75859","GP_ID":"223380404","MEAN_ANOMALY":"96.9717","MEAN_MOTION":"14.98321262","LAUNCH_DATE":"2021-09-14","PERIAPSIS":"569.934","CLASSIFICATION_TYPE":"U","OBJECT_TYPE":"PAYLOAD","FILE":"3753286","EPOCH":"2023-01-17T21:51:27.507456","DECAY_DATE":null,"OBJECT_NAME":"STARLINK-3088","ELEMENT_SET_NO":"999","MEAN_MOTION_DDOT":"0.0000000000000","RCS_SIZE":"LARGE","OBJECT_ID":"2021-082AK","NORAD_CAT_ID":"49163","ARG_OF_PERICENTER":"263.1090","REV_AT_EPOCH":"7585","TLE_LINE1":"1 49163U 21082AK  23017.91073504  .00004656  00000-0  39783-3 0  9992","BSTAR":"0.00039783000000","REF_FRAME":"TEME","PERIOD":"96.108","MEAN_MOTION_DOT":"0.00004656","SITE":"AFWTR","ECCENTRICITY":"0.00030950"},{"MEAN_MOTION":"14.98335469","LAUNCH_DATE":"2021-09-14","OBJECT_TYPE":"PAYLOAD","CLASSIFICATION_TYPE":"U","PERIAPSIS":"569.875","EPOCH":"2023-01-17T21:37:43.614336","FILE":"3753286","DECAY_DATE":null,"COUNTRY_CODE":"US","SEMIMAJOR_AXIS":"6950.176","APOAPSIS":"574.207","CENTER_NAME":"EARTH","TIME_SYSTEM":"UTC","TLE_LINE2":"2 49164  70.0020 285.9134 0003117 278.4496  81.6309 14.98335469 75864","GP_ID":"223381155","RA_OF_ASC_NODE":"285.9134","MEAN_ANOMALY":"81.6309","EPHEMERIS_TYPE":"0","INCLINATION":"70.0020","MEAN_ELEMENT_THEORY":"SGP4","PERIOD":"96.107","MEAN_MOTION_DOT":"0.00020738","SITE":"AFWTR","ECCENTRICITY":"0.00031170","BSTAR":"0.00174040000000","TLE_LINE1":"1 49164U 21082AL  23017.90119924  .00020738  00000-0  17404-2 0  9993","REV_AT_EPOCH":"7586","REF_FRAME":"TEME","NORAD_CAT_ID":"49164","ARG_OF_PERICENTER":"278.4496","OBJECT_NAME":"STARLINK-3106","ELEMENT_SET_NO":"999","MEAN_MOTION_DDOT":"0.0000000000000","RCS_SIZE":"LARGE","OBJECT_ID":"2021-082AL"},{"REF_FRAME":"TEME","BSTAR":"0.00123630000000","TLE_LINE1":"1 49165U 21082AM  23017.53269246  .00014684  00000-0  12363-2 0  9998","REV_AT_EPOCH":"7535","MEAN_MOTION_DOT":"0.00014684","ECCENTRICITY":"0.00031190","SITE":"AFWTR","PERIOD":"96.108","MEAN_MOTION_DDOT":"0.0000000000000","OBJECT_ID":"2021-082AM","RCS_SIZE":"LARGE","OBJECT_NAME":"STARLINK-3052","ELEMENT_SET_NO":"999","ARG_OF_PERICENTER":"265.6243","NORAD_CAT_ID":"49165","OBJECT_TYPE":"PAYLOAD","CLASSIFICATION_TYPE":"U","PERIAPSIS":"569.931","FILE":"3753098","EPOCH":"2023-01-17T12:47:04.628544","DECAY_DATE":null,"MEAN_MOTION":"14.98316860","LAUNCH_DATE":"2021-09-14","INCLINATION":"70.0024","MEAN_ELEMENT_THEORY":"SGP4","EPHEMERIS_TYPE":"0","GP_ID":"223354417","TLE_LINE2":"2 49165  70.0024 306.8462 0003119 265.6243  94.4560 14.98316860 75355","RA_OF_ASC_NODE":"306.8462","MEAN_ANOMALY":"94.4560","COUNTRY_CODE":"US","CENTER_NAME":"EARTH","APOAPSIS":"574.266","SEMIMAJOR_AXIS":"6950.234","TIME_SYSTEM":"UTC"},{"FILE":"3753252","DECAY_DATE":null,"EPOCH":"2023-01-17T23:20:40.196544","OBJECT_TYPE":"PAYLOAD","CLASSIFICATION_TYPE":"U","PERIAPSIS":"569.640","LAUNCH_DATE":"2021-09-14","MEAN_MOTION":"14.98385673","MEAN_ANOMALY":"102.0027","GP_ID":"223357999","TLE_LINE2":"2 49166  70.0004 285.7388 0003231 258.0770 102.0027 14.98385673 75905","RA_OF_ASC_NODE":"285.7388","APOAPSIS":"574.131","CENTER_NAME":"EARTH","SEMIMAJOR_AXIS":"6950.021","TIME_SYSTEM":"UTC","COUNTRY_CODE":"US","INCLINATION":"70.0004","MEAN_ELEMENT_THEORY":"SGP4","EPHEMERIS_TYPE":"0","SITE":"AFWTR","ECCENTRICITY":"0.00032310","MEAN_MOTION_DOT":"0.00011952","PERIOD":"96.103","REF_FRAME":"TEME","BSTAR":"0.00100630000000","TLE_LINE1":"1 49166U 21082AN  23017.97268746  .00011952  00000-0  10063-2 0  9991","REV_AT_EPOCH":"7590","ARG_OF_PERICENTER":"258.0770","NORAD_CAT_ID":"49166","RCS_SIZE":"LARGE","OBJECT_ID":"2021-082AN","MEAN_MOTION_DDOT":"0.0000000000000","ELEMENT_SET_NO":"999","OBJECT_NAME":"STARLINK-3089"},{"INCLINATION":"70.0024","MEAN_ELEMENT_THEORY":"SGP4","EPHEMERIS_TYPE":"0","TLE_LINE2":"2 49167  70.0024 306.3496 0002959 266.5108  93.5713 14.98322979 75370","GP_ID":"223379904","RA_OF_ASC_NODE":"306.3496","MEAN_ANOMALY":"93.5713","COUNTRY_CODE":"US","CENTER_NAME":"EARTH","APOAPSIS":"574.136","SEMIMAJOR_AXIS":"6950.215","TIME_SYSTEM":"UTC","OBJECT_TYPE":"PAYLOAD","CLASSIFICATION_TYPE":"U","PERIAPSIS":"570.023","EPOCH":"2023-01-17T17:28:36.746976","FILE":"3753286","DECAY_DATE":null,"MEAN_MOTION":"14.98322979","LAUNCH_DATE":"2021-09-14","MEAN_MOTION_DDOT":"0.0000000000000","RCS_SIZE":"LARGE","OBJECT_ID":"2021-082AP","OBJECT_NAME":"STARLINK-3054","ELEMENT_SET_NO":"999","ARG_OF_PERICENTER":"266.5108","NORAD_CAT_ID":"49167","REF_FRAME":"TEME","BSTAR":"0.00028434000000","TLE_LINE1":"1 49167U 21082AP  23017.72820309  .00003301  00000-0  28434-3 0  9995","REV_AT_EPOCH":"7537","MEAN_MOTION_DOT":"0.00003301","ECCENTRICITY":"0.00029590","SITE":"AFWTR","PERIOD":"96.107"}];
